[{"OBJECT_NAME":"YUNHAI-1 02","OBJECT_ID":"2019-063A","EPOCH":"2026-03-09T23:04:05.569248","MEAN_MOTION":14.32707277,"ECCENTRICITY":0.00067235,"INCLINATION":98.4179,"RA_OF_ASC_NODE":82.2649,"ARG_OF_PERICENTER":91.6948,"MEAN_ANOMALY":268.5007,"EPHEMERIS_TYPE":0,"CLASSIFICATION_TYPE":"U","NORAD_CAT_ID":44547,"ELEMENT_SET_NO":999,"REV_AT_EPOCH":33766,"BSTAR":0.00012714191,"MEAN_MOTION_DOT":3.04e-6,"MEAN_MOTION_DDOT":0},{"OBJECT_NAME":"FENGYUN 1C DEB","OBJECT_ID":"1999-025BJA","EPOCH":"2026-03-09T23:00:29.059488","MEAN_MOTION":14.31603118,"ECCENTRICITY":0.01492804,"INCLINATION":98.4278,"RA_OF_ASC_NODE":75.8925,"ARG_OF_PERICENTER":10.701,"MEAN_ANOMALY":349.7292,"EPHEMERIS_TYPE":0,"CLASSIFICATION_TYPE":"U","NORAD_CAT_ID":31172,"ELEMENT_SET_NO":999,"REV_AT_EPOCH":98874,"BSTAR":0.00023168832,"MEAN_MOTION_DOT":6.52e-6,"MEAN_MOTION_DDOT":0}]
